{
    "links": {
        "self": "http://www.neowsapp.com/rest/v1/neo/54075546?api_key=iIulBulltgU6a56xZRHN4H3l9WmuAYTsLGpBGhQ2"
    },
    "id": "54075546",
    "neo_reference_id": "54075546",
    "name": "(2020 UZ1)",
    "designation": "2020 UZ1",
    "nasa_jpl_url": "http://ssd.jpl.nasa.gov/sbdb.cgi?sstr=54075546",
    "absolute_magnitude_h": 22.453,
    "estimated_diameter": {
        "kilometers": {
            "estimated_diameter_min": 0.0858924472,
            "estimated_diameter_max": 0.1920613507
        },
        "meters": {
            "estimated_diameter_min": 85.8924472023,
            "estimated_diameter_max": 192.0613506981
        },
        "miles": {
            "estimated_diameter_min": 0.0533710758,
            "estimated_diameter_max": 0.1193413535
        },
        "feet": {
            "estimated_diameter_min": 281.7993764791,
            "estimated_diameter_max": 630.1225618244
        }
    },
    "is_potentially_hazardous_asteroid": false,
    "close_approach_data": [
        {
            "close_approach_date": "2020-10-21",
            "close_approach_date_full": "2020-Oct-21 00:24",
            "epoch_date_close_approach": 1603239840000,
            "relative_velocity": {
                "kilometers_per_second": "22.9229456953",
                "kilometers_per_hour": "82522.6045030541",
                "miles_per_hour": "51276.3372258005"
            },
            "miss_distance": {
                "astronomical": "0.244579619",
                "lunar": "95.141471791",
                "kilometers": "36588590.04781153",
                "miles": "22735095.615317914"
            },
            "orbiting_body": "Earth"
        },
        {
            "close_approach_date": "2177-10-23",
            "close_approach_date_full": "2177-Oct-23 18:22",
            "epoch_date_close_approach": 6557912520000,
            "relative_velocity": {
                "kilometers_per_second": "23.2238903476",
                "kilometers_per_hour": "83606.0052511865",
                "miles_per_hour": "51949.5203184386"
            },
            "miss_distance": {
                "astronomical": "0.2630048858",
                "lunar": "102.3089005762",
                "kilometers": "39344970.715273246",
                "miles": "24447831.1414769548"
            },
            "orbiting_body": "Earth"
        }
    ],
    "orbital_data": {
        "orbit_id": "5",
        "orbit_determination_date": "2020-11-14 05:24:02",
        "first_observation_date": "2020-10-17",
        "last_observation_date": "2020-11-07",
        "data_arc_in_days": 21,
        "observations_used": 35,
        "orbit_uncertainty": "8",
        "minimum_orbit_intersection": ".244539",
        "jupiter_tisserand_invariant": "4.364",
        "epoch_osculation": "2459143.5",
        "eccentricity": ".1438250089567527",
        "semi_major_axis": "1.428369026951132",
        "inclination": "45.95857903802456",
        "ascending_node_longitude": "29.16239491660924",
        "orbital_period": "623.5324546872513",
        "perihelion_distance": "1.222933838856337",
        "perihelion_argument": "332.164371052745",
        "aphelion_distance": "1.633804215045926",
        "perihelion_time": "2459110.045119736813",
        "mean_anomaly": "19.31536490877316",
        "mean_motion": ".57735567297867",
        "equinox": "J2000",
        "orbit_class": {
            "orbit_class_type": "AMO",
            "orbit_class_description": "Near-Earth asteroid orbits similar to that of 1221 Amor",
            "orbit_class_range": "1.017 AU < q (perihelion) < 1.3 AU"
        }
    },
    "is_sentry_object": false
}